      2.10          N: GNSS NAV DATA                        RINEX VERSION / TYPE
fic2rin                                 08/27/2021 00:17:16 PGM / RUN BY / DATE
                                                            END OF HEADER
22 21  8 26  8  0  0.0-5.289432592690e-04 9.322320693173e-12 0.000000000000e+00
    7.100000000000e+01-5.000000000000e+00 5.458084493985e-09 1.498371533189e-01
   -3.241002559662e-07 6.787964724936e-03 3.762543201447e-06 5.153745965958e+03
    3.744000000000e+05 2.421438694000e-08 2.151896140072e+00-1.564621925354e-07
    9.359690988699e-01 2.978125000000e+02-9.031587985206e-01-8.808224040744e-09
   -4.214461263514e-11 1.000000000000e+00 2.172000000000e+03 0.000000000000e+00
    2.400000000000e+00 0.000000000000e+00-1.769512891769e-08 7.100000000000e+01
    3.672000000000e+05 4.000000000000e+00
32 21  8 26  8  0  0.0 4.864297807217e-06-2.955857780762e-12 0.000000000000e+00
    1.090000000000e+02-5.221875000000e+01 4.355895726255e-09 1.960877768213e+00
   -2.646818757057e-06 5.077641806565e-03 9.974464774132e-06 5.153713758469e+03
    3.744000000000e+05-1.154839992523e-07-2.989051288887e+00-4.470348358154e-08
    9.579751069827e-01 1.826250000000e+02-2.370174274335e+00-7.977832308738e-09
   -2.146517982518e-10 1.000000000000e+00 2.172000000000e+03 0.000000000000e+00
    2.400000000000e+00 0.000000000000e+00 4.656612873077e-10 1.090000000000e+02
    3.672000000000e+05 4.000000000000e+00
21 21  8 26  8  0  0.0 1.393109560013e-04 2.046363078989e-12 0.000000000000e+00
    7.000000000000e+01 3.878125000000e+01 4.546260798582e-09 1.373111750313e+00
    1.559033989906e-06 2.405289886519e-02 9.283423423767e-06 5.153649864197e+03
    3.744000000000e+05 4.991888999939e-07 1.131191054648e+00-3.054738044739e-07
    9.578873099542e-01 1.898125000000e+02-1.093375125543e+00-8.002833350132e-09
    1.575065607805e-10 1.000000000000e+00 2.172000000000e+03 0.000000000000e+00
    2.400000000000e+00 0.000000000000e+00-1.024454832077e-08 7.000000000000e+01
    3.672000000000e+05 4.000000000000e+00
25 21  8 26  8  0  0.0 1.975726336241e-04 6.366462912410e-12 0.000000000000e+00
    5.000000000000e+01 3.750000000000e+00 4.978778814693e-09-2.518272740739e+00
    1.210719347000e-07 9.844231652096e-03 3.870576620102e-06 5.153578483582e+03
    3.744000000000e+05 2.104789018631e-07-8.902299015801e-01-7.823109626770e-08
    9.596044700294e-01 3.032187500000e+02 9.698652750331e-01-8.320703733566e-09
    6.893144269984e-11 1.000000000000e+00 2.172000000000e+03 0.000000000000e+00
    2.400000000000e+00 0.000000000000e+00 5.587935447693e-09 5.000000000000e+01
    3.672000000000e+05 4.000000000000e+00
26 21  8 26  8  0  0.0 1.269881613553e-04 4.320099833421e-12 0.000000000000e+00
    4.400000000000e+01 6.593750000000e+00 5.456655863048e-09 3.093422557512e+00
    4.339963197708e-07 6.021746783517e-03 3.682449460030e-06 5.153607723236e+03
    3.744000000000e+05-5.587935447693e-08-9.339965001318e-01-8.568167686462e-08
    9.404738478822e-01 3.001875000000e+02 2.954644614294e-01-8.551784787591e-09
    5.143071372424e-11 1.000000000000e+00 2.172000000000e+03 0.000000000000e+00
    2.400000000000e+00 0.000000000000e+00 6.984919309616e-09 4.400000000000e+01
    3.672000000000e+05 4.000000000000e+00
24 21  8 26  8  0  0.0 2.188580110669e-04 1.011812855722e-11 0.000000000000e+00
    7.700000000000e+01 5.221875000000e+01 5.125213485714e-09-6.244073057106e-01
    2.920627593994e-06 1.141651300713e-02 9.041279554367e-06 5.153718595505e+03
    3.744000000000e+05 1.061707735062e-07-2.007252484911e+00 1.750886440277e-07
    9.347093684085e-01 1.937187500000e+02 7.514326258993e-01-8.482853344891e-09
    3.460858444360e-10 1.000000000000e+00 2.172000000000e+03 0.000000000000e+00
    2.400000000000e+00 0.000000000000e+00 2.793967723846e-09 7.700000000000e+01
    3.672000000000e+05 4.000000000000e+00
20 21  8 26  8  0  0.0 5.194591358304e-04-2.273736754432e-13 0.000000000000e+00
    8.000000000000e+01 5.250000000000e+00 5.371295164575e-09 1.856171012973e-01
    2.030283212662e-07 5.517033045180e-03 3.816559910774e-06 5.153637538910e+03
    3.744000000000e+05 8.940696716309e-08 2.105675396964e+00-1.862645149231e-09
    9.392494527441e-01 2.951875000000e+02 2.974602510763e+00-8.750364487804e-09
    4.035882396416e-11 1.000000000000e+00 2.172000000000e+03 0.000000000000e+00
    2.400000000000e+00 0.000000000000e+00-8.381903171539e-09 8.000000000000e+01
    3.672000000000e+05 4.000000000000e+00
19 21  8 26  8  0  0.0 4.456657916307e-05 5.002220859751e-12 0.000000000000e+00
    0.000000000000e+00-4.131250000000e+01 3.955879063956e-09-2.622385816027e+00
   -2.009794116020e-06 9.180300170556e-03 1.023896038532e-05 5.153653356552e+03
    3.744000000000e+05 5.401670932770e-08 2.656125457030e-01 1.080334186554e-07
    9.803408510400e-01 1.908437500000e+02 1.927218085923e+00-7.637103830315e-09
   -2.871548182937e-10 1.000000000000e+00 2.172000000000e+03 0.000000000000e+00
    2.400000000000e+00 0.000000000000e+00-1.536682248116e-08 2.560000000000e+02
    3.672000000000e+05 4.000000000000e+00
18 21  8 26  8  0  0.0 3.291517496109e-04-3.751665644813e-12 0.000000000000e+00
    1.500000000000e+02 5.365625000000e+01 4.265891977238e-09-6.500603217817e-01
    2.691522240639e-06 1.862689852715e-03 8.907169103622e-06 5.153649623871e+03
    3.744000000000e+05 3.725290298462e-09 1.227791412155e+00-8.381903171539e-08
    9.688342352404e-01 2.151562500000e+02 2.914048301123e+00-7.946045270394e-09
    1.921508609975e-10 1.000000000000e+00 2.172000000000e+03 0.000000000000e+00
    2.400000000000e+00 0.000000000000e+00-8.381903171539e-09 1.500000000000e+02
    3.672000000000e+05 4.000000000000e+00
14 21  8 26  8  0  0.0 1.534773036838e-05-8.412825991400e-12 0.000000000000e+00
    5.600000000000e+01 2.375000000000e+00 5.104141179396e-09-2.359533076984e+00
    1.378357410431e-07 1.057791989297e-03 4.256144165993e-06 5.153642036438e+03
    3.744000000000e+05-6.146728992462e-08-8.441709001578e-01-3.166496753693e-08
    9.557129909051e-01 2.979062500000e+02 3.076750949975e+00-8.486067764499e-09
   -3.035840740667e-11 1.000000000000e+00 2.172000000000e+03 0.000000000000e+00
    2.400000000000e+00 0.000000000000e+00-7.916241884232e-09 8.240000000000e+02
    3.672000000000e+05 4.000000000000e+00
23 21  8 26  8  0  0.0 6.582587957382e-05-5.002220859751e-12 0.000000000000e+00
    1.670000000000e+02-1.203125000000e+01 4.614477925813e-09-1.397193785472e+00
   -5.140900611877e-07 1.587523613125e-03 4.034489393234e-06 5.153662143707e+03
    3.744000000000e+05-4.656612873077e-08 2.227769850825e+00 3.539025783539e-08
    9.651816257689e-01 3.046562500000e+02 2.657652510900e+00-8.262129865158e-09
   -5.000208278745e-12 1.000000000000e+00 2.172000000000e+03 0.000000000000e+00
    2.400000000000e+00 0.000000000000e+00-8.381903171539e-09 4.230000000000e+02
    3.672000000000e+05 4.000000000000e+00
17 21  8 26  8  0  0.0 4.951180890203e-04 5.798028723802e-12 0.000000000000e+00
    8.900000000000e+01-5.253125000000e+01 3.987308944565e-09 1.278987709349e+00
   -2.922490239143e-06 1.347647490911e-02 1.009181141853e-05 5.153656677246e+03
    3.744000000000e+05-1.378357410431e-07 2.205849029895e-01-3.054738044739e-07
    9.817344663011e-01 2.006875000000e+02-1.559923748468e+00-7.904614973228e-09
   -3.632294156774e-10 1.000000000000e+00 2.172000000000e+03 0.000000000000e+00
    4.850000000000e+00 0.000000000000e+00-1.117587089539e-08 8.900000000000e+01
    3.672000000000e+05 4.000000000000e+00
28 21  8 26  8  0  0.0 5.129729397595e-04-7.162270776462e-12 0.000000000000e+00
    1.770000000000e+02-4.968750000000e+00 4.678409160235e-09 1.759486533288e+00
   -4.991888999939e-07 1.747008960228e-02 4.017725586891e-06 5.153719167709e+03
    3.744000000000e+05 2.849847078323e-07-7.933668113008e-01-1.993030309677e-07
    9.714340469387e-01 3.060312500000e+02-1.340668159639e+00-8.117838140543e-09
   -1.064330047904e-10 1.000000000000e+00 2.172000000000e+03 0.000000000000e+00
    4.850000000000e+00 6.300000000000e+01-1.117587089539e-08 1.770000000000e+02
    3.672000000000e+05 4.000000000000e+00
16 21  8 26  7 59 44.0-3.799577243626e-04-6.252776074689e-12 0.000000000000e+00
    7.000000000000e+00-1.215625000000e+01 4.767698593784e-09 2.124540164471e+00
   -6.649643182755e-07 1.219158712775e-02 4.353001713753e-06 5.153741735458e+03
    3.743840000000e+05-3.017485141754e-07-7.968981551040e-01-1.676380634308e-07
    9.723211253520e-01 3.044062500000e+02 6.801696130745e-01-8.238914612435e-09
   -5.785955293977e-11 1.000000000000e+00 2.172000000000e+03 0.000000000000e+00
    2.400000000000e+00 0.000000000000e+00-1.024454832077e-08 7.000000000000e+00
    3.676200000000e+05 4.000000000000e+00
30 21  8 26  7 59 44.0-4.662470892072e-04-3.979039320257e-12 0.000000000000e+00
    1.000000000000e+01 6.296875000000e+01 4.990922177656e-09-1.733250169855e+00
    2.993270754814e-06 5.371989449486e-03 9.423121809959e-06 5.153662342072e+03
    3.743840000000e+05 5.960464477539e-08-1.911634535412e+00-5.960464477539e-08
    9.364060812776e-01 1.821875000000e+02-2.733006603392e+00-8.289631010691e-09
    4.985921969377e-10 1.000000000000e+00 2.172000000000e+03 0.000000000000e+00
    2.400000000000e+00 0.000000000000e+00 3.725290298462e-09 1.000000000000e+01
    3.685500000000e+05 4.000000000000e+00
27 21  8 26  7 59 44.0-1.838090829551e-04-5.456968210638e-12 0.000000000000e+00
    0.000000000000e+00-4.462500000000e+01 4.284821337150e-09 1.193876969996e+00
   -2.147629857063e-06 9.458138141781e-03 9.965151548386e-06 5.153692903519e+03
    3.743840000000e+05 9.313225746155e-09 1.593114116398e-01 1.825392246246e-07
    9.754523010809e-01 1.953750000000e+02 6.343992468522e-01-8.048549540109e-09
   -4.664480008601e-10 1.000000000000e+00 2.172000000000e+03 0.000000000000e+00
    2.400000000000e+00 0.000000000000e+00 1.862645149231e-09 0.000000000000e+00
    3.685800000000e+05 4.000000000000e+00
